{
    "links": {
        "self": "http://www.neowsapp.com/rest/v1/neo/3388313?api_key=iIulBulltgU6a56xZRHN4H3l9WmuAYTsLGpBGhQ2"
    },
    "id": "3388313",
    "neo_reference_id": "3388313",
    "name": "(2007 TS24)",
    "designation": "2007 TS24",
    "nasa_jpl_url": "http://ssd.jpl.nasa.gov/sbdb.cgi?sstr=3388313",
    "absolute_magnitude_h": 23.3,
    "estimated_diameter": {
        "kilometers": {
            "estimated_diameter_min": 0.058150704,
            "estimated_diameter_max": 0.130028927
        },
        "meters": {
            "estimated_diameter_min": 58.1507039646,
            "estimated_diameter_max": 130.0289270043
        },
        "miles": {
            "estimated_diameter_min": 0.0361331611,
            "estimated_diameter_max": 0.0807962044
        },
        "feet": {
            "estimated_diameter_min": 190.7831555951,
            "estimated_diameter_max": 426.6041048727
        }
    },
    "is_potentially_hazardous_asteroid": false,
    "close_approach_data": [
        {
            "close_approach_date": "2007-10-19",
            "close_approach_date_full": "2007-Oct-19 16:03",
            "epoch_date_close_approach": 1192809780000,
            "relative_velocity": {
                "kilometers_per_second": "10.6798988325",
                "kilometers_per_hour": "38447.6357970169",
                "miles_per_hour": "23889.8656984298"
            },
            "miss_distance": {
                "astronomical": "0.0317309728",
                "lunar": "12.3433484192",
                "kilometers": "4746885.943907936",
                "miles": "2949578.1517880768"
            },
            "orbiting_body": "Earth"
        },
        {
            "close_approach_date": "2102-09-29",
            "close_approach_date_full": "2102-Sep-29 02:31",
            "epoch_date_close_approach": 4188940260000,
            "relative_velocity": {
                "kilometers_per_second": "17.4908915984",
                "kilometers_per_hour": "62967.2097542929",
                "miles_per_hour": "39125.3754164938"
            },
            "miss_distance": {
                "astronomical": "0.2719325909",
                "lunar": "105.7817778601",
                "kilometers": "40680536.382221383",
                "miles": "25277713.1647777654"
            },
            "orbiting_body": "Earth"
        },
        {
            "close_approach_date": "2197-12-25",
            "close_approach_date_full": "2197-Dec-25 11:25",
            "epoch_date_close_approach": 7194482700000,
            "relative_velocity": {
                "kilometers_per_second": "12.6761413497",
                "kilometers_per_hour": "45634.1088589632",
                "miles_per_hour": "28355.2605851708"
            },
            "miss_distance": {
                "astronomical": "0.1244804842",
                "lunar": "48.4229083538",
                "kilometers": "18622015.292888654",
                "miles": "11571183.7400812652"
            },
            "orbiting_body": "Earth"
        }
    ],
    "orbital_data": {
        "orbit_id": "12",
        "orbit_determination_date": "2017-04-06 09:05:44",
        "first_observation_date": "2007-09-17",
        "last_observation_date": "2007-10-16",
        "data_arc_in_days": 29,
        "observations_used": 74,
        "orbit_uncertainty": "7",
        "minimum_orbit_intersection": ".0266228",
        "jupiter_tisserand_invariant": "2.957",
        "epoch_osculation": "2459000.5",
        "eccentricity": ".6506478084399238",
        "semi_major_axis": "2.822079975740731",
        "inclination": "5.360992385264925",
        "ascending_node_longitude": "22.07299662641286",
        "orbital_period": "1731.619240182825",
        "perihelion_distance": ".9858998242828312",
        "perihelion_argument": "32.69828951695767",
        "aphelion_distance": "4.658260127198631",
        "perihelion_time": "2459586.546066676373",
        "mean_anomaly": "238.1622546644727",
        "mean_motion": ".2078978979016143",
        "equinox": "J2000",
        "orbit_class": {
            "orbit_class_type": "APO",
            "orbit_class_description": "Near-Earth asteroid orbits which cross the Earth’s orbit similar to that of 1862 Apollo",
            "orbit_class_range": "a (semi-major axis) > 1.0 AU; q (perihelion) < 1.017 AU"
        }
    },
    "is_sentry_object": false
}